ONEWEB-0098             
1 45442U 20020U   25283.32310257  .00000590  00000+0  16298-2 0  9997
2 45442  87.8817  70.8238 0001700  97.1047 263.0274 13.11416252269898
ONEWEB-0055             
1 45443U 20020V   25282.46687571  .00000218  00000+0  57876-3 0  9993
2 45443  87.8817  70.9965 0001653  92.9787 267.1530 13.11417940269758
ONEWEB-0093             
1 45444U 20020W   25282.97650286 -.00000466  00000+0 -13505-2 0  9990
2 45444  87.8816  70.8794 0001310  83.0756 277.0521 13.11414860269886
ONEWEB-0029             
1 45445U 20020X   25282.45839207 -.00000216  00000+0 -64665-3 0  9993
2 45445  87.8819  70.9959 0001500  93.6418 266.4882 13.11418319269792
ONEWEB-0068             
1 45446U 20020Y   25282.97622581 -.00000520  00000+0 -15037-2 0  9992
2 45446  87.8819  70.8811 0001416  94.6270 265.5020 13.11415251269800
ONEWEB-0046             
1 45447U 20020Z   25282.96788656 -.00000174  00000+0 -52581-3 0  9999
2 45447  87.8811  70.8914 0001554  83.9148 276.2157 13.11415463269811
ONEWEB-0063             
1 45448U 20020AA  25282.84412038 -.00000117  00000+0 -36710-3 0  9998
2 45448  87.8816  70.9147 0001767  87.4637 272.6693 13.11417270269884
ONEWEB-0019             
1 45449U 20020AB  25282.97042494 -.00000292  00000+0 -85907-3 0  9994
2 45449  87.8807  70.9042 0001632  98.9696 261.1617 13.11413349269749
